[{"OBJECT_NAME":"STARLINK-32356","OBJECT_ID":"2024-154U","EPOCH":"2026-03-09T20:49:39.413856","MEAN_MOTION":15.30196309,"ECCENTRICITY":0.00013804,"INCLINATION":53.1589,"RA_OF_ASC_NODE":282.9086,"ARG_OF_PERICENTER":99.478,"MEAN_ANOMALY":260.6377,"EPHEMERIS_TYPE":0,"CLASSIFICATION_TYPE":"U","NORAD_CAT_ID":60921,"ELEMENT_SET_NO":999,"REV_AT_EPOCH":8637,"BSTAR":2.7207626e-5,"MEAN_MOTION_DOT":4.47e-6,"MEAN_MOTION_DDOT":0},{"OBJECT_NAME":"OBJECT A","OBJECT_ID":"2024-203A","EPOCH":"2026-03-09T23:31:20.812800","MEAN_MOTION":15.27300571,"ECCENTRICITY":0.00108989,"INCLINATION":97.4288,"RA_OF_ASC_NODE":139.5608,"ARG_OF_PERICENTER":322.6893,"MEAN_ANOMALY":37.3588,"EPHEMERIS_TYPE":0,"CLASSIFICATION_TYPE":"U","NORAD_CAT_ID":61869,"ELEMENT_SET_NO":999,"REV_AT_EPOCH":7380,"BSTAR":0.00061472876,"MEAN_MOTION_DOT":0.00016411,"MEAN_MOTION_DDOT":0}]
